25112,ORBCOMM FM08,1997,99.68,45.0,-,45.01,Inactive,1,LEO,Eastern Range Airspace,ORBCOMM,Commercial,Communications,Pegasus,1 25112U 97084A   24351.83522400  .00003507  00000+0  10454-2 0  9998,2 25112  45.0117 162.5021 0005591  57.7295 302.4097 14.44562077415165,14.44562077,0.0005591,LEO
25113,ORBCOMM FM10,1997,99.7,45.0,-,45.01,Inactive,1,LEO,Eastern Range Airspace,ORBCOMM,Commercial,Communications,Pegasus,1 25113U 97084B   24350.82289486  .00002908  00000+0  87690-3 0  9992,2 25113  45.0129 169.4324 0003331  13.0516 347.0421 14.44396950589996,14.4439695,0.0003331,LEO
25115,ORBCOMM FM12,1997,99.71,45.0,-,45.01,Inactive,1,LEO,Eastern Range Airspace,ORBCOMM,Commercial,Communications,Pegasus,1 25115U 97084D   24350.96900420  .00002888  00000+0  87514-3 0  9999,2 25115  45.0122 168.8098 0003204  14.7518 345.3425 14.44179905415016,14.44179905,0.0003204,LEO
25116,ORBCOMM FM09,1997,99.72,45.0,-,45.01,Inactive,1,LEO,Eastern Range Airspace,ORBCOMM,Commercial,Communications,Pegasus,1 25116U 97084E   24351.74861280  .00002945  00000+0  89306-3 0  9992,2 25116  45.0126 165.8516 0004350 357.9232   2.1600 14.44103680415123,14.4410368,0.000435,LEO
21576,ORBCOMM-X,1991,99.79,-1.0,-,98.37,Inactive,0,LEO,French Guiana,ORBCOMM,Unknown,Unknown,Unknown,1 21576U 91050C   24351.47507439  .00000732  00000+0  23174-3 0  9991,2 21576  98.3693  55.6092 0004131  35.3141 324.8322 14.42977226755986,14.42977226,0.0004131,LEO
23545,ORBCOMM FM01,1995,96.91,-1.0,-,69.96,Inactive,0,LEO,Western Range Airspace,ORBCOMM,Unknown,Unknown,Unknown,1 23545U 95017A   24350.98666094  .00010602  00000+0  12198-2 0  9994,2 23545  69.9629 169.6778 0006863 254.8459 105.1934 14.85951175585609,14.85951175,0.0006863,LEO
23546,ORBCOMM FM02,1995,96.91,-1.0,-,69.96,Inactive,0,LEO,Western Range Airspace,ORBCOMM,Unknown,Unknown,Unknown,1 23546U 95017B   24351.79564302  .00010848  00000+0  12477-2 0  9996,2 23546  69.9647 187.3708 0008682 247.5286 112.4947 14.85944703585310,14.85944703,0.0008682,LEO
25114,ORBCOMM FM11,1997,99.71,45.0,-,45.01,Inactive,1,LEO,Eastern Range Airspace,ORBCOMM,Commercial,Communications,Pegasus,1 25114U 97084C   24351.76566024  .00003169  00000+0  95613-3 0  9997,2 25114  45.0116 165.2360 0004192  19.1350 340.9657 14.44181058415123,14.44181058,0.0004192,LEO
